EUTELSAT 21B            
1 38992U 12062B   25267.96780826  .00000132  00000+0  00000+0 0  9994
2 38992   0.0704 351.6865 0002835 198.3628 184.0142  1.00272406 47163
EUTELSAT 70B            
1 39020U 12069A   25267.83169698 -.00000042  00000+0  00000+0 0  9999
2 39020   0.0661   3.5041 0004028 184.0331 186.2821  1.00271534 46849
EUTELSAT 117 WEST A     
1 39122U 13012A   25267.69641863  .00000000  00000+0  00000+0 0  9997
2 39122   0.0110 147.6454 0002946  41.5856 308.4357  1.00270819 45773
EUTELSAT 7B             
1 39163U 13022A   25267.79235904  .00000049  00000+0  00000+0 0  9992
2 39163   0.0679 355.2493 0000812  12.1853 288.6912  1.00270833 45298
EXPRESS-AT1             
1 39612U 14010A   25267.80206575  .00000080  00000+0  00000+0 0  9998
2 39612   0.0014 140.6822 0000722 312.6923 255.2652  1.00272227 42150
EXPRESS-AT2             
1 39613U 14010B   25267.89007815 -.00000279  00000+0  00000+0 0  9995
2 39613   0.0148 225.7190 0000251 266.6639 331.8721  1.00272047 41844
EUTELSAT 3B             
1 39773U 14030A   25267.79157904  .00000021  00000+0  00000+0 0  9992
2 39773   0.0637   2.4592 0004308 178.2547 111.2182  1.00272037 41405
EUTELSAT 115 WEST B     
1 40425U 15010B   25267.56572692 -.00000025  00000+0  00000+0 0  9992
2 40425   0.0173 337.2634 0000058 284.8321 190.3230  1.00272121 38732
